NUSAT-1 (FRESCO)        
1 41557U 16033B   22181.55675042  .00008797  00000+0  26130-3 0  9998
2 41557  97.3893 279.2783 0009863 338.0412 147.8201 15.34970664339393
BEESAT-4                
1 41619U 16040W   22181.57686662  .00006217  00000+0  20687-3 0  9993
2 41619  97.2155 231.8570 0011071  76.1099 284.1374 15.31438989322737
CAS-2T & KS-1Q          
1 41847U 16066G   22181.41919529  .00000524  00000+0  88135-4 0  9996
2 41847  98.5505 246.0771 0364090 170.9274 189.8737 14.38603694296214
NAYIF-1 (EO-88)         
1 42017U 17008BX  22181.14738685  .00007496  00000+0  22317-3 0  9999
2 42017  97.2682 247.0790 0005292 179.4864 180.6386 15.34978838299026
ZHUHAI-1 02 (CAS-4B)    
1 42759U 17034B   22181.46325834  .00002559  00000+0  15918-3 0  9998
2 42759  43.0174 260.9859 0009618   2.8652 107.7460 15.12000351278329
ZHUHAI-1 01 (CAS-4A)    
1 42761U 17034D   22181.43076491  .00002404  00000+0  14997-3 0  9995
2 42761  43.0182 259.9425 0009491   5.1034  97.7178 15.12085660278327
MAX VALIER SAT          
1 42778U 17036P   22181.55967755  .00003479  00000+0  13312-3 0  9993
2 42778  97.2034 222.2111 0008695 279.9879  80.0379 15.27185067278900
RADFXSAT (FOX-1B)       
1 43017U 17073E   22181.61076049  .00001378  00000+0  10738-3 0  9990
2 43017  97.6741  75.2669 0249304 144.4754 217.3350 14.81456786249069
FOX-1D (AO-92)          
1 43137U 18004AC  22181.44169538  .00003998  00000+0  14195-3 0  9996
2 43137  97.3686 256.4823 0006225 324.9700  35.1131 15.29602780248333
DIWATA-2B               
1 43678U 18084H   22181.45858650  .00000539  00000+0  58730-4 0  9997
2 43678  97.9721 314.8772 0008618 238.3617 121.6782 14.92188703199795
ES'HAIL 2               
1 43700U 18090A   22181.59534297  .00000153  00000+0  00000+0 0  9997
2 43700   0.0189 352.9846 0001047 141.2579  24.5536  1.00275442 13163
FOX-1CLIFF (AO-95)      
1 43770U 18099N   22181.42851422  .00000569  00000+0  55033-4 0  9999
2 43770  97.6205 247.4420 0013011 228.2125 131.7985 14.96487755194951
ITASAT 1                
1 43786U 18099AE  22181.15313199  .00000780  00000+0  73349-4 0  9995
2 43786  97.6235 248.0992 0013661 221.0075 139.0120 14.96629787194953
JY1SAT (JO-97)          
1 43803U 18099AX  22181.43401470  .00000703  00000+0  65805-4 0  9999
2 43803  97.6191 248.1319 0013799 219.9768 140.0439 14.97131153195014
UWE-4                   
1 43880U 18111E   22181.42441090  .00001972  00000+0  17090-3 0  9991
2 43880  97.6684  87.5088 0009613 279.0058  81.0076 14.98220882191648
NEXUS (FO-99)           
1 43937U 19003F   22181.56945503  .00005928  00000+0  19912-3 0  9998
2 43937  97.1286 214.4108 0022603 106.5841 253.7886 15.30956651191987
PSAT2 (NO-104)          
1 44354U 19036R   22181.03335998  .00048074 -54042-5  41267-3 0  9990
2 44354  28.5246  91.0417 0224697 112.5412 249.9131 15.41363705166622
JAISAT-1                
1 44419U 19038F   22181.55969651  .00003182  00000+0  16145-3 0  9996
2 44419  97.6362 151.7892 0021334  86.7232 273.6441 15.17484373165047
DUCHIFAT-3              
1 44854U 19089C   22181.61039388  .00002489  00000+0  19647-3 0  9996
2 44854  36.9670  22.3423 0009829 327.1262  32.8884 15.01155415139919
CAS-6 (TO-108)          
1 44881U 19093C   22181.47674449  .00000425  00000+0  60536-4 0  9990
2 44881  97.8930 260.4987 0015871 139.5252 220.7142 14.81742313136707
RS-44 & BREEZE-KM R/B   
1 44909U 19096E   22181.55975882  .00000031  00000+0  88824-4 0  9991
2 44909  82.5204 221.5684 0216216 289.2081  68.5737 12.79713730117189
ORBITAL FACTORY 2 (OF-2)
1 45113U 19071C   22181.49252940  .00013426  00000+0  27850-3 0  9991
2 45113  51.6388 355.1823 0009813 218.0962 141.9332 15.45988012135390
HUSKYSAT-1 (HO-107)     
1 45119U 19071J   22181.50633557  .00010835  00000+0  23423-3 0  9999
2 45119  51.6389 355.2487 0009574 214.0872 145.9501 15.45002455135383
BY70-2                  
1 45857U 20042B   22181.47583582  .00005168  00000+0  68966-3 0  9990
2 45857  97.9551 258.1907 0012272  79.4948 280.7585 14.79956878107382
SALSAT                  
1 46495U 20068K   22181.46458751  .00001101  00000+0  82848-4 0  9994
2 46495  97.7294 122.7690 0015278 230.8004 129.1866 15.04553575 96148
BY70-3                  
1 46839U 20079N   22181.61508848  .00015531  00000+0  36010-3 0  9999
2 46839  97.1983 253.5394 0003617 275.1292 191.0014 15.42487845 92279
RADFXSAT-2 (AO-109)     
1 47311U 21002C   22181.57808717  .00003469  00000+0  14640-3 0  9997
2 47311  60.6862 312.8322 0018630 347.8585  12.2052 15.25468363 80468
UVSQ-SAT                
1 47438U 21006AB  22181.41714975  .00002052  00000+0  11074-3 0  9991
2 47438  97.4362 240.1616 0010823 223.1806 136.8579 15.15817779 79247
DIY-1 (ARDUIQUBE)       
1 47963U 21022AH  22180.97282612  .00006606  00000+0  36795-3 0  9996
2 47963  97.5319  82.1890 0019359  89.0043 271.3407 15.13793846 68841
XW-3 (CAS-9)            
1 50466U 21131B   22181.52702059 -.00000003  00000+0  13676-4 0  9993
2 50466  98.5806 258.7748 0005921 108.7275 251.4555 14.38504289 26792
TEVEL-3                 
1 50988U 22002E   22181.45471688  .00005419  00000+0  29700-3 0  9992
2 50988  97.4817 248.2202 0010015  29.4993  97.4575 15.14570075 25381
TEVEL-8                 
1 50989U 22002F   22181.45915890  .00005390  00000+0  29582-3 0  9997
2 50989  97.4831 248.2431 0010234  28.2128  92.6962 15.14518078 25384
TEVEL-5                 
1 50998U 22002Q   22181.66973340  .00005279  00000+0  28542-3 0  9995
2 50998  97.4805 248.5282 0011568  22.7570 105.0959 15.15048121 25421
TEVEL-6                 
1 50999U 22002R   22181.45822054  .00005331  00000+0  28818-3 0  9993
2 50999  97.4810 248.3194 0011616  23.0999  33.9265 15.15050820 25395
TEVEL-1                 
1 51013U 22002AF  22181.65999928  .00005333  00000+0  29251-3 0  9992
2 51013  97.4808 248.4058 0010028  27.9496 124.4564 15.14547476 25419
TEVEL-7                 
1 51062U 22002CG  22181.65982505  .00005382  00000+0  29547-3 0  9991
2 51062  97.4821 248.4303 0010029  27.1345  99.6334 15.14510253 25418
TEVEL-4                 
1 51063U 22002CH  22181.59564733  .00005336  00000+0  29303-3 0  9993
2 51063  97.4822 248.3640 0010051  27.5896 106.5809 15.14501346 25400
TEVEL-2                 
1 51069U 22002CP  22181.45495198  .00005466  00000+0  29956-3 0  9990
2 51069  97.4813 248.2094 0009940  29.5670  92.8710 15.14562919 25383
